CCSDS_OMM_VERS = 2.0
CREATION_DATE  = 
ORIGINATOR     = 

OBJECT_NAME    = DELTA 2 R/B(1)
OBJECT_ID      = 1990-008B
CENTER_NAME    = EARTH
REF_FRAME      = TEME
TIME_SYSTEM    = UTC
MEAN_ELEMENT_THEORY = SGP/SGP4

EPOCH          = 2025-12-06T22:26:20.013504
MEAN_MOTION    = 15.44575556
ECCENTRICITY   = .01118134
INCLINATION    = 35.6070
RA_OF_ASC_NODE = 58.0003
ARG_OF_PERICENTER = 125.5785
MEAN_ANOMALY   = 235.5427

EPHEMERIS_TYPE = 0
CLASSIFICATION_TYPE = U
NORAD_CAT_ID   = 20453
ELEMENT_SET_NO = 999
REV_AT_EPOCH   = 91173
BSTAR          = .8295451E-3
MEAN_MOTION_DOT = .50726E-3
MEAN_MOTION_DDOT = 0

CCSDS_OMM_VERS = 2.0
CREATION_DATE  = 
ORIGINATOR     = 

OBJECT_NAME    = COSMOS 2058
OBJECT_ID      = 1990-010A
CENTER_NAME    = EARTH
REF_FRAME      = TEME
TIME_SYSTEM    = UTC
MEAN_ELEMENT_THEORY = SGP/SGP4

EPOCH          = 2025-12-06T22:16:27.314688
MEAN_MOTION    = 15.10385441
ECCENTRICITY   = .00083225
INCLINATION    = 82.4645
RA_OF_ASC_NODE = 138.7473
ARG_OF_PERICENTER = 297.8763
MEAN_ANOMALY   = 62.1624

EPHEMERIS_TYPE = 0
CLASSIFICATION_TYPE = U
NORAD_CAT_ID   = 20465
ELEMENT_SET_NO = 999
REV_AT_EPOCH   = 92823
BSTAR          = .45516945E-3
MEAN_MOTION_DOT = .7506E-4
MEAN_MOTION_DDOT = 0

CCSDS_OMM_VERS = 2.0
CREATION_DATE  = 
ORIGINATOR     = 

OBJECT_NAME    = SL-14 R/B
OBJECT_ID      = 1990-010B
CENTER_NAME    = EARTH
REF_FRAME      = TEME
TIME_SYSTEM    = UTC
MEAN_ELEMENT_THEORY = SGP/SGP4

EPOCH          = 2025-12-06T11:20:21.248160
MEAN_MOTION    = 14.83462863
ECCENTRICITY   = .00183937
INCLINATION    = 82.5021
RA_OF_ASC_NODE = 354.9337
ARG_OF_PERICENTER = 245.2353
MEAN_ANOMALY   = 114.6948

EPHEMERIS_TYPE = 0
CLASSIFICATION_TYPE = U
NORAD_CAT_ID   = 20466
ELEMENT_SET_NO = 999
REV_AT_EPOCH   = 91466
BSTAR          = .10569795E-3
MEAN_MOTION_DOT = .894E-5
MEAN_MOTION_DDOT = 0

CCSDS_OMM_VERS = 2.0
CREATION_DATE  = 
ORIGINATOR     = 

OBJECT_NAME    = SL-14 R/B
OBJECT_ID      = 1990-018B
CENTER_NAME    = EARTH
REF_FRAME      = TEME
TIME_SYSTEM    = UTC
MEAN_ELEMENT_THEORY = SGP/SGP4

EPOCH          = 2025-12-06T22:34:46.992288
MEAN_MOTION    = 14.82037097
ECCENTRICITY   = .00174455
INCLINATION    = 82.5204
RA_OF_ASC_NODE = 309.7850
ARG_OF_PERICENTER = 41.5138
MEAN_ANOMALY   = 318.7397

EPHEMERIS_TYPE = 0
CLASSIFICATION_TYPE = U
NORAD_CAT_ID   = 20511
ELEMENT_SET_NO = 999
REV_AT_EPOCH   = 90884
BSTAR          = .11139998E-3
MEAN_MOTION_DOT = .91E-5
MEAN_MOTION_DDOT = 0

CCSDS_OMM_VERS = 2.0
CREATION_DATE  = 
ORIGINATOR     = 

OBJECT_NAME    = HST
OBJECT_ID      = 1990-037B
CENTER_NAME    = EARTH
REF_FRAME      = TEME
TIME_SYSTEM    = UTC
MEAN_ELEMENT_THEORY = SGP/SGP4

EPOCH          = 2025-12-06T07:49:26.387904
MEAN_MOTION    = 15.27913744
ECCENTRICITY   = .00019699
INCLINATION    = 28.4701
RA_OF_ASC_NODE = 316.1394
ARG_OF_PERICENTER = 164.3543
MEAN_ANOMALY   = 195.7113

EPHEMERIS_TYPE = 0
CLASSIFICATION_TYPE = U
NORAD_CAT_ID   = 20580
ELEMENT_SET_NO = 999
REV_AT_EPOCH   = 75901
BSTAR          = .40507089E-3
MEAN_MOTION_DOT = .11592E-3
MEAN_MOTION_DDOT = 0

CCSDS_OMM_VERS = 2.0
CREATION_DATE  = 
ORIGINATOR     = 

OBJECT_NAME    = SL-16 R/B
OBJECT_ID      = 1990-046B
CENTER_NAME    = EARTH
REF_FRAME      = TEME
TIME_SYSTEM    = UTC
MEAN_ELEMENT_THEORY = SGP/SGP4

EPOCH          = 2025-12-06T21:04:57.275616
MEAN_MOTION    = 14.15000285
ECCENTRICITY   = .00118849
INCLINATION    = 70.9986
RA_OF_ASC_NODE = 132.8304
ARG_OF_PERICENTER = 84.2656
MEAN_ANOMALY   = 275.9821

EPHEMERIS_TYPE = 0
CLASSIFICATION_TYPE = U
NORAD_CAT_ID   = 20625
ELEMENT_SET_NO = 999
REV_AT_EPOCH   = 83526
BSTAR          = .10663146E-3
MEAN_MOTION_DOT = .159E-5
MEAN_MOTION_DDOT = 0

CCSDS_OMM_VERS = 2.0
CREATION_DATE  = 
ORIGINATOR     = 

OBJECT_NAME    = COSMOS 2084
OBJECT_ID      = 1990-055A
CENTER_NAME    = EARTH
REF_FRAME      = TEME
TIME_SYSTEM    = UTC
MEAN_ELEMENT_THEORY = SGP/SGP4

EPOCH          = 2025-12-06T22:05:16.379808
MEAN_MOTION    = 15.04962010
ECCENTRICITY   = .00326731
INCLINATION    = 62.7913
RA_OF_ASC_NODE = 291.8206
ARG_OF_PERICENTER = 174.0148
MEAN_ANOMALY   = 186.1350

EPHEMERIS_TYPE = 0
CLASSIFICATION_TYPE = U
NORAD_CAT_ID   = 20663
ELEMENT_SET_NO = 999
REV_AT_EPOCH   = 92235
BSTAR          = .36296267E-3
MEAN_MOTION_DOT = .5029E-4
MEAN_MOTION_DDOT = 0

CCSDS_OMM_VERS = 2.0
CREATION_DATE  = 
ORIGINATOR     = 

OBJECT_NAME    = SL-6 R/B(2)
OBJECT_ID      = 1990-055D
CENTER_NAME    = EARTH
REF_FRAME      = TEME
TIME_SYSTEM    = UTC
MEAN_ELEMENT_THEORY = SGP/SGP4

EPOCH          = 2025-12-06T21:54:23.309856
MEAN_MOTION    = 15.03037715
ECCENTRICITY   = .00121512
INCLINATION    = 62.7826
RA_OF_ASC_NODE = 209.2146
ARG_OF_PERICENTER = 304.3489
MEAN_ANOMALY   = 55.6459

EPHEMERIS_TYPE = 0
CLASSIFICATION_TYPE = U
NORAD_CAT_ID   = 20666
ELEMENT_SET_NO = 999
REV_AT_EPOCH   = 92424
BSTAR          = .29032273E-3
MEAN_MOTION_DOT = .374E-4
MEAN_MOTION_DDOT = 0

CCSDS_OMM_VERS = 2.0
CREATION_DATE  = 
ORIGINATOR     = 

OBJECT_NAME    = SL-8 R/B
OBJECT_ID      = 1990-078B
CENTER_NAME    = EARTH
REF_FRAME      = TEME
TIME_SYSTEM    = UTC
MEAN_ELEMENT_THEORY = SGP/SGP4

EPOCH          = 2025-12-06T22:32:42.963360
MEAN_MOTION    = 14.85583197
ECCENTRICITY   = .03738703
INCLINATION    = 82.9043
RA_OF_ASC_NODE = 334.5011
ARG_OF_PERICENTER = 325.4180
MEAN_ANOMALY   = 32.3216

EPHEMERIS_TYPE = 0
CLASSIFICATION_TYPE = U
NORAD_CAT_ID   = 20775
ELEMENT_SET_NO = 999
REV_AT_EPOCH   = 79551
BSTAR          = .1005126E-2
MEAN_MOTION_DOT = .32463E-3
MEAN_MOTION_DDOT = 0

CCSDS_OMM_VERS = 2.0
CREATION_DATE  = 
ORIGINATOR     = 

OBJECT_NAME    = SL-8 R/B
OBJECT_ID      = 1991-006B
CENTER_NAME    = EARTH
REF_FRAME      = TEME
TIME_SYSTEM    = UTC
MEAN_ELEMENT_THEORY = SGP/SGP4

EPOCH          = 2025-12-06T20:51:53.730432
MEAN_MOTION    = 13.77489145
ECCENTRICITY   = .00213931
INCLINATION    = 82.9431
RA_OF_ASC_NODE = 239.0790
ARG_OF_PERICENTER = 297.2689
MEAN_ANOMALY   = 134.4952

EPHEMERIS_TYPE = 0
CLASSIFICATION_TYPE = U
NORAD_CAT_ID   = 21088
ELEMENT_SET_NO = 999
REV_AT_EPOCH   = 75129
BSTAR          = .116598E-3
MEAN_MOTION_DOT = .131E-5
MEAN_MOTION_DDOT = 0

CCSDS_OMM_VERS = 2.0
CREATION_DATE  = 
ORIGINATOR     = 

OBJECT_NAME    = OKEAN-3
OBJECT_ID      = 1991-039A
CENTER_NAME    = EARTH
REF_FRAME      = TEME
TIME_SYSTEM    = UTC
MEAN_ELEMENT_THEORY = SGP/SGP4

EPOCH          = 2025-12-06T19:51:59.489568
MEAN_MOTION    = 15.04060292
ECCENTRICITY   = .00128742
INCLINATION    = 82.5177
RA_OF_ASC_NODE = 66.7696
ARG_OF_PERICENTER = 287.9380
MEAN_ANOMALY   = 72.0442

EPHEMERIS_TYPE = 0
CLASSIFICATION_TYPE = U
NORAD_CAT_ID   = 21397
ELEMENT_SET_NO = 999
REV_AT_EPOCH   = 85107
BSTAR          = .40905812E-3
MEAN_MOTION_DOT = .5696E-4
MEAN_MOTION_DDOT = 0

CCSDS_OMM_VERS = 2.0
CREATION_DATE  = 
ORIGINATOR     = 

OBJECT_NAME    = COSMOS 2151
OBJECT_ID      = 1991-042A
CENTER_NAME    = EARTH
REF_FRAME      = TEME
TIME_SYSTEM    = UTC
MEAN_ELEMENT_THEORY = SGP/SGP4

EPOCH          = 2025-12-06T21:14:27.554496
MEAN_MOTION    = 14.99653777
ECCENTRICITY   = .0013122
INCLINATION    = 82.4958
RA_OF_ASC_NODE = 173.1453
ARG_OF_PERICENTER = 19.0166
MEAN_ANOMALY   = 341.1545

EPHEMERIS_TYPE = 0
CLASSIFICATION_TYPE = U
NORAD_CAT_ID   = 21422
ELEMENT_SET_NO = 999
REV_AT_EPOCH   = 84928
BSTAR          = .29202261E-3
MEAN_MOTION_DOT = .363E-4
MEAN_MOTION_DDOT = 0

