DELTA 2 R/B(1)          
1 20453U 90008B   25340.93495386  .00050726  00000+0  82955-3 0  9993
2 20453  35.6070  58.0003 0111813 125.5785 235.5427 15.44575556911737
COSMOS 2058             
1 20465U 90010A   25340.92809392  .00007506  00000+0  45517-3 0  9995
2 20465  82.4645 138.7473 0008322 297.8763  62.1624 15.10385441928235
SL-14 R/B               
1 20466U 90010B   25340.47246815  .00000894  00000+0  10570-3 0  9995
2 20466  82.5021 354.9337 0018393 245.2353 114.6948 14.83462863914664
SL-14 R/B               
1 20511U 90018B   25340.94082167  .00000910  00000+0  11140-3 0  9997
2 20511  82.5204 309.7850 0017445  41.5138 318.7397 14.82037097908845
HST                     
1 20580U 90037B   25340.32599986  .00011592  00000+0  40507-3 0  9995
2 20580  28.4701 316.1394 0001969 164.3543 195.7113 15.27913744759019
SL-16 R/B               
1 20625U 90046B   25340.87844069  .00000159  00000+0  10663-3 0  9997
2 20625  70.9986 132.8304 0011884  84.2656 275.9821 14.15000285835264
COSMOS 2084             
1 20663U 90055A   25340.92032847  .00005029  00000+0  36296-3 0  9999
2 20663  62.7913 291.8206 0032673 174.0148 186.1350 15.04962010922354
SL-6 R/B(2)             
1 20666U 90055D   25340.91276979  .00003740  00000+0  29032-3 0  9995
2 20666  62.7826 209.2146 0012151 304.3489  55.6459 15.03037715924245
SL-8 R/B                
1 20775U 90078B   25340.93938615  .00032463  00000+0  10051-2 0  9999
2 20775  82.9043 334.5011 0373870 325.4180  32.3216 14.85583197795512
SL-8 R/B                
1 21088U 91006B   25340.86937188  .00000131  00000+0  11660-3 0  9990
2 21088  82.9431 239.0790 0021393 297.2689 134.4952 13.77489145751290
OKEAN-3                 
1 21397U 91039A   25340.82777187  .00005696  00000+0  40906-3 0  9992
2 21397  82.5177  66.7696 0012874 287.9380  72.0442 15.04060292851072
COSMOS 2151             
1 21422U 91042A   25340.88504114  .00003630  00000+0  29202-3 0  9991
2 21422  82.4958 173.1453 0013122  19.0166 341.1545 14.99653777849287
